[{"OBJECT_NAME":"TRANSPORTER-15 OBJECT V","OBJECT_ID":"2025-276V","EPOCH":"2026-03-09T17:08:31.585344","MEAN_MOTION":15.2021049,"ECCENTRICITY":0.00044492,"INCLINATION":97.4286,"RA_OF_ASC_NODE":144.0632,"ARG_OF_PERICENTER":13.5049,"MEAN_ANOMALY":346.6304,"EPHEMERIS_TYPE":0,"CLASSIFICATION_TYPE":"U","NORAD_CAT_ID":66685,"ELEMENT_SET_NO":999,"REV_AT_EPOCH":1532,"BSTAR":0.00072831858,"MEAN_MOTION_DOT":0.0001574,"MEAN_MOTION_DDOT":0},{"OBJECT_NAME":"LEO EXPRESS 3","OBJECT_ID":"2025-276X","EPOCH":"2026-03-09T17:01:27.083136","MEAN_MOTION":15.18911167,"ECCENTRICITY":0.00089891,"INCLINATION":97.4301,"RA_OF_ASC_NODE":143.9034,"ARG_OF_PERICENTER":143.3594,"MEAN_ANOMALY":216.8257,"EPHEMERIS_TYPE":0,"CLASSIFICATION_TYPE":"U","NORAD_CAT_ID":66687,"ELEMENT_SET_NO":999,"REV_AT_EPOCH":1531,"BSTAR":0.00062123771,"MEAN_MOTION_DOT":0.00012924,"MEAN_MOTION_DDOT":0}]
